{
    "links": {
        "self": "http://www.neowsapp.com/rest/v1/neo/3560131?api_key=iIulBulltgU6a56xZRHN4H3l9WmuAYTsLGpBGhQ2"
    },
    "id": "3560131",
    "neo_reference_id": "3560131",
    "name": "(2011 FT9)",
    "designation": "2011 FT9",
    "nasa_jpl_url": "http://ssd.jpl.nasa.gov/sbdb.cgi?sstr=3560131",
    "absolute_magnitude_h": 26.2,
    "estimated_diameter": {
        "kilometers": {
            "estimated_diameter_min": 0.0152951935,
            "estimated_diameter_max": 0.0342010925
        },
        "meters": {
            "estimated_diameter_min": 15.2951935344,
            "estimated_diameter_max": 34.201092472
        },
        "miles": {
            "estimated_diameter_min": 0.0095039897,
            "estimated_diameter_max": 0.021251567
        },
        "feet": {
            "estimated_diameter_min": 50.1810827555,
            "estimated_diameter_max": 112.2083122258
        }
    },
    "is_potentially_hazardous_asteroid": false,
    "close_approach_data": [
        {
            "close_approach_date": "1992-07-02",
            "close_approach_date_full": "1992-Jul-02 08:29",
            "epoch_date_close_approach": 710065740000,
            "relative_velocity": {
                "kilometers_per_second": "19.7876136062",
                "kilometers_per_hour": "71235.4089823765",
                "miles_per_hour": "44262.9128757439"
            },
            "miss_distance": {
                "astronomical": "0.4662981473",
                "lunar": "181.3899792997",
                "kilometers": "69757209.621026251",
                "miles": "43345120.1185782238"
            },
            "orbiting_body": "Earth"
        },
        {
            "close_approach_date": "2011-04-01",
            "close_approach_date_full": "2011-Apr-01 03:25",
            "epoch_date_close_approach": 1301628300000,
            "relative_velocity": {
                "kilometers_per_second": "6.2828751699",
                "kilometers_per_hour": "22618.3506116842",
                "miles_per_hour": "14054.1634675768"
            },
            "miss_distance": {
                "astronomical": "0.0194023175",
                "lunar": "7.5475015075",
                "kilometers": "2902545.371063725",
                "miles": "1803558.061480405"
            },
            "orbiting_body": "Earth"
        }
    ],
    "orbital_data": {
        "orbit_id": "6",
        "orbit_determination_date": "2017-04-06 08:54:01",
        "first_observation_date": "2011-03-27",
        "last_observation_date": "2011-03-29",
        "data_arc_in_days": 2,
        "observations_used": 25,
        "orbit_uncertainty": "8",
        "minimum_orbit_intersection": ".00884222",
        "jupiter_tisserand_invariant": "4.416",
        "epoch_osculation": "2455648.5",
        "eccentricity": ".353913543882997",
        "semi_major_axis": "1.528953924984307",
        "inclination": "2.481931522799691",
        "ascending_node_longitude": "28.68883637627022",
        "orbital_period": "690.5418820308481",
        "perihelion_distance": ".9878364229592931",
        "perihelion_argument": "184.9751973273746",
        "aphelion_distance": "2.070071427009321",
        "perihelion_time": "2455671.787114440916",
        "mean_anomaly": "347.8597353514971",
        "mean_motion": ".5213297113004334",
        "equinox": "J2000",
        "orbit_class": {
            "orbit_class_type": "APO",
            "orbit_class_description": "Near-Earth asteroid orbits which cross the Earth’s orbit similar to that of 1862 Apollo",
            "orbit_class_range": "a (semi-major axis) > 1.0 AU; q (perihelion) < 1.017 AU"
        }
    },
    "is_sentry_object": false
}